[{"OBJECT_NAME":"STARLINK-30125","OBJECT_ID":"2023-067P","EPOCH":"2026-03-09T21:51:10.089216","MEAN_MOTION":15.2757641,"ECCENTRICITY":9.573e-5,"INCLINATION":42.9986,"RA_OF_ASC_NODE":269.8264,"ARG_OF_PERICENTER":273.72,"MEAN_ANOMALY":86.3542,"EPHEMERIS_TYPE":0,"CLASSIFICATION_TYPE":"U","NORAD_CAT_ID":56701,"ELEMENT_SET_NO":999,"REV_AT_EPOCH":15573,"BSTAR":6.9363402e-5,"MEAN_MOTION_DOT":1.647e-5,"MEAN_MOTION_DDOT":0},{"OBJECT_NAME":"BLUEBON","OBJECT_ID":"2025-009CH","EPOCH":"2026-03-09T16:52:33.225312","MEAN_MOTION":15.29047254,"ECCENTRICITY":0.00011933,"INCLINATION":97.4017,"RA_OF_ASC_NODE":152.2033,"ARG_OF_PERICENTER":43.39,"MEAN_ANOMALY":316.7434,"EPHEMERIS_TYPE":0,"CLASSIFICATION_TYPE":"U","NORAD_CAT_ID":62688,"ELEMENT_SET_NO":999,"REV_AT_EPOCH":6376,"BSTAR":0.00037313027,"MEAN_MOTION_DOT":0.00010452,"MEAN_MOTION_DDOT":0}]
